[{"OBJECT_NAME":"YAOGAN-40 03A","OBJECT_ID":"2025-199A","EPOCH":"2026-03-09T23:03:31.278816","MEAN_MOTION":14.26419606,"ECCENTRICITY":0.00148498,"INCLINATION":85.9829,"RA_OF_ASC_NODE":86.7514,"ARG_OF_PERICENTER":35.6299,"MEAN_ANOMALY":324.588,"EPHEMERIS_TYPE":0,"CLASSIFICATION_TYPE":"U","NORAD_CAT_ID":65544,"ELEMENT_SET_NO":999,"REV_AT_EPOCH":2627,"BSTAR":0.00017546994,"MEAN_MOTION_DOT":4.42e-6,"MEAN_MOTION_DDOT":0},{"OBJECT_NAME":"NOAA 16 DEB","OBJECT_ID":"2000-055DK","EPOCH":"2026-03-09T01:08:35.038464","MEAN_MOTION":14.25577722,"ECCENTRICITY":0.00131861,"INCLINATION":98.6197,"RA_OF_ASC_NODE":111.3296,"ARG_OF_PERICENTER":98.4171,"MEAN_ANOMALY":261.8504,"EPHEMERIS_TYPE":0,"CLASSIFICATION_TYPE":"U","NORAD_CAT_ID":41206,"ELEMENT_SET_NO":999,"REV_AT_EPOCH":52831,"BSTAR":0.0017243451,"MEAN_MOTION_DOT":4.043e-5,"MEAN_MOTION_DDOT":0}]
